{
  "norad_id": 47799,
  "name": "STARLINK-2380",
  "history": [
    {
      "epoch": "2026-03-28T20:33:07.154784",
      "apogee_km": 476.15132849401743,
      "perigee_km": 474.3105138703868,
      "latitude_deg": 41.552804602872335,
      "longitude_deg": 122.10794975981116,
      "semi_major_axis_km": 6853.367921182202,
      "eccentricity": 0.0001343,
      "inclination_deg": 53.16,
      "raan_deg": 143.124,
      "arg_perigee_deg": 97.9523,
      "mean_anomaly_deg": 262.163,
      "mean_motion_rev_day": 15.30194691
    }
  ]
}